NORAD_CAT_ID,OBJECT_NAME,OBJECT_TYPE,EPOCH,MEAN_MOTION,ECCENTRICITY,INCLINATION,RA_OF_ASC_NODE,ARG_OF_PERICENTER,MEAN_ANOMALY,BSTAR,MEAN_MOTION_DOT,MEAN_MOTION_DDOT,TLE_LINE0,TLE_LINE1,TLE_LINE2,SEMIMAJOR_AXIS,PERIOD,APOGEE,PERIGEE,DECAYED
55427.0,STARLINK-5073,PAYLOAD,2024-03-22 10:34:03,14.98336662,0.0003077,69.9983,92.9601,270.273,89.8077,6.3194e-05,6.61e-06,0.0,0 STARLINK-5073,1 55427U 23014AN  24082.44031709  .00000661  00000-0  63194-4 0  9997,2 55427  69.9983  92.9601 0003077 270.2730  89.8077 14.98336662 64124,6950.172,96.107,574.176,569.899,0.0
55427.0,STARLINK-5073,PAYLOAD,2024-03-23 04:11:33,14.98322807,0.0003012,69.9984,91.1081,269.5931,90.4882,-4.9941e-06,-1.53e-06,0.0,0 STARLINK-5073,1 55427U 23014AN  24083.17468847 -.00000153  00000-0 -49941-5 0  9998,2 55427  69.9984  91.1081 0003012 269.5931  90.4882 14.98322807 63296,6950.215,96.107,574.174,569.987,0.0
55427.0,STARLINK-5073,PAYLOAD,2024-03-23 10:36:05,14.98326044,0.0002992,69.9985,90.4347,269.5983,90.4833,2.8894e-05,2.52e-06,0.0,0 STARLINK-5073,1 55427U 23014AN  24083.44172631  .00000252  00000-0  28894-4 0  9992,2 55427  69.9985  90.4347 0002992 269.5983  90.4833 14.98326044 64279,6950.205,96.107,574.15,569.991,0.0
55427.0,STARLINK-5073,PAYLOAD,2024-03-24 04:13:33,14.9833711,0.000287,69.9989,88.5842,274.1466,85.9365,3.0005e-05,2.65e-06,0.0,0 STARLINK-5073,1 55427U 23014AN  24084.17607917  .00000265  00000-0  30005-4 0  9994,2 55427  69.9989  88.5842 0002870 274.1466  85.9365 14.98337110 63447,6950.171,96.107,574.031,570.041,0.0
55427.0,STARLINK-5073,PAYLOAD,2024-03-24 10:38:05,14.98340178,0.0002758,69.999,87.911,268.1462,91.9381,6.9556e-05,7.37e-06,0.0,0 STARLINK-5073,1 55427U 23014AN  24084.44311442  .00000737  00000-0  69556-4 0  9996,2 55427  69.9990  87.9110 0002758 268.1462  91.9381 14.98340178 64426,6950.161,96.106,573.943,570.11,0.0
55427.0,STARLINK-5073,PAYLOAD,2024-03-24 17:02:37,14.98332933,0.0002496,69.9996,87.2366,275.4663,84.6212,-2.61e-05,-4.04e-06,0.0,0 STARLINK-5073,1 55427U 23014AN  24084.71016200 -.00000404  00000-0 -26100-4 0  9991,2 55427  69.9996  87.2366 0002496 275.4663  84.6212 14.98332933 64467,6950.184,96.107,573.784,570.314,0.0
55427.0,STARLINK-5073,PAYLOAD,2024-03-25 05:51:42,14.98322658,0.0002358,69.9999,85.8909,257.7001,102.3894,3.2739e-05,2.98e-06,0.0,0 STARLINK-5073,1 55427U 23014AN  24085.24424683  .00000298  00000-0  32739-4 0  9992,2 55427  69.9999  85.8909 0002358 257.7001 102.3894 14.98322658 63605,6950.216,96.107,573.719,570.442,0.0
55427.0,STARLINK-5073,PAYLOAD,2024-03-25 17:04:39,14.98323205,0.0002712,69.9992,84.7128,265.1386,94.9463,-1.6706e-05,-2.92e-06,0.0,0 STARLINK-5073,1 55427U 23014AN  24085.71156918 -.00000292  00000-0 -16706-4 0  9999,2 55427  69.9992  84.7128 0002712 265.1386  94.9463 14.98323205 64611,6950.214,96.107,573.964,570.194,0.0
55427.0,STARLINK-5073,PAYLOAD,2024-03-26 04:17:37,14.98311873,0.000312,69.9985,83.5337,265.5039,94.5764,-0.00027456,-3.366e-05,0.0,0 STARLINK-5073,1 55427U 23014AN  24086.17890530 -.00003366  00000-0 -27456-3 0  9993,2 55427  69.9985  83.5337 0003120 265.5039  94.5764 14.98311873 63746,6950.249,96.108,574.282,569.945,0.0
55427.0,STARLINK-5073,PAYLOAD,2024-03-26 10:42:10,14.98308608,0.0003318,69.998,82.86,268.8482,91.2297,-0.00029168,-3.57e-05,0.0,0 STARLINK-5073,1 55427U 23014AN  24086.44595120 -.00003570  00000-0 -29168-3 0  9999,2 55427  69.9980  82.8600 0003318 268.8482  91.2297 14.98308608 64729,6950.259,96.108,574.43,569.818,0.0
55427.0,STARLINK-5073,PAYLOAD,2024-03-26 17:06:41,14.98317942,0.0003801,70.0015,82.1863,262.9052,97.1675,-8.4891e-05,-1.106e-05,0.0,0 STARLINK-5073,1 55427U 23014AN  24086.71297968 -.00001106  00000-0 -84891-4 0  9996,2 55427  70.0015  82.1863 0003801 262.9052  97.1675 14.98317942 63826,6950.23,96.108,574.737,569.453,0.0
55427.0,STARLINK-5073,PAYLOAD,2024-03-27 09:08:02,14.983212,0.0002534,69.9998,80.5049,261.6619,98.4253,7.3225e-05,7.81e-06,0.0,0 STARLINK-5073,1 55427U 23014AN  24087.38058486  .00000781  00000-0  73225-4 0  9995,2 55427  69.9998  80.5049 0002534 261.6619  98.4253 14.98321200 64861,6950.22,96.108,573.846,570.324,0.0
55427.0,STARLINK-5073,PAYLOAD,2024-03-27 17:08:42,14.98329148,0.000299,69.9989,79.6613,265.2128,94.869,0.00013725,1.545e-05,0.0,0 STARLINK-5073,1 55427U 23014AN  24087.71437809  .00001545  00000-0  13725-3 0  9999,2 55427  69.9989  79.6613 0002990 265.2128  94.8690 14.98329148 63973,6950.196,96.107,574.139,569.982,0.0
55427.0,STARLINK-5073,PAYLOAD,2024-03-28 09:10:02,14.98326944,0.000302,69.9989,77.9786,264.4953,95.5861,0.00038178,4.465e-05,0.0,0 STARLINK-5073,1 55427U 23014AN  24088.38197485  .00004465  00000-0  38178-3 0  9999,2 55427  69.9989  77.9786 0003020 264.4953  95.5861 14.98326944 65013,6950.202,96.107,574.166,569.968,0.0
55427.0,STARLINK-5073,PAYLOAD,2024-03-28 17:10:42,14.98330989,0.0003061,69.999,77.1371,264.1865,95.8945,0.00037916,4.434e-05,0.0,0 STARLINK-5073,1 55427U 23014AN  24088.71577210  .00004434  00000-0  37916-3 0  9999,2 55427  69.9990  77.1371 0003061 264.1865  95.8945 14.98330989 64122,6950.19,96.107,574.182,569.927,0.0
55427.0,STARLINK-5073,PAYLOAD,2024-03-29 04:23:37,14.98382082,0.0002472,69.999,75.9586,271.2177,88.8699,-0.00042677,-5.188e-05,0.0,0 STARLINK-5073,1 55427U 23014AN  24089.18307593 -.00005188  00000-0 -42677-3 0  9995,2 55427  69.9990  75.9586 0002472 271.2177  88.8699 14.98382082 64192,6950.032,96.104,573.615,570.179,0.0
55427.0,STARLINK-5073,PAYLOAD,2024-03-29 09:12:02,14.98352486,0.0003013,69.9991,75.4537,266.8962,93.1852,0.00017722,2.023e-05,0.0,0 STARLINK-5073,1 55427U 23014AN  24089.38335848  .00002023  00000-0  17722-3 0  9997,2 55427  69.9991  75.4537 0003013 266.8962  93.1852 14.98352486 64227,6950.123,96.106,574.082,569.894,0.0
55427.0,STARLINK-5073,PAYLOAD,2024-03-29 22:01:07,14.98343436,0.0002691,70.0,74.1073,268.8103,91.2748,-6.9615e-05,-9.24e-06,0.0,0 STARLINK-5073,1 55427U 23014AN  24089.91744603 -.00000924  00000-0 -69615-4 0  9998,2 55427  70.0000  74.1073 0002691 268.8103  91.2748 14.98343436 65243,6950.151,96.106,573.887,570.146,0.0
55427.0,STARLINK-5073,PAYLOAD,2024-03-30 04:25:39,14.98341777,0.0002581,70.0005,73.4354,266.069,94.0174,-7.1375e-05,-9.45e-06,0.0,0 STARLINK-5073,1 55427U 23014AN  24090.18448458 -.00000945  00000-0 -71375-4 0  9997,2 55427  70.0005  73.4354 0002581 266.0690  94.0174 14.98341777 64341,6950.156,96.106,573.815,570.228,0.0
55427.0,STARLINK-5073,PAYLOAD,2024-03-30 09:14:03,14.98339681,0.0002588,70.0,72.9289,267.7894,92.2968,-6.9465e-05,-9.22e-06,0.0,0 STARLINK-5073,1 55427U 23014AN  24090.38476428 -.00000922  00000-0 -69465-4 0  9999,2 55427  70.0000  72.9289 0002588 267.7894  92.2968 14.98339681 65318,6950.163,96.106,573.827,570.229,0.0
55427.0,STARLINK-5073,PAYLOAD,2024-03-30 15:38:35,14.98338762,0.0002773,70.0,72.2557,267.126,92.9582,-0.00011191,-1.428e-05,0.0,0 STARLINK-5073,1 55427U 23014AN  24090.65180352 -.00001428  00000-0 -11191-3 0  9991,2 55427  70.0000  72.2557 0002773 267.1260  92.9582 14.98338762 65358,6950.166,96.106,573.958,570.104,0.0
55427.0,STARLINK-5073,PAYLOAD,2024-03-31 04:27:39,14.98341967,0.0002736,69.9996,70.9091,267.2009,92.8837,-0.00017371,-2.166e-05,0.0,0 STARLINK-5073,1 55427U 23014AN  24091.18587951 -.00002166  00000-0 -17371-3 0  9992,2 55427  69.9996  70.9091 0002736 267.2009  92.8837 14.98341967 64495,6950.156,96.106,573.922,570.119,0.0
55427.0,STARLINK-5073,PAYLOAD,2024-03-31 09:16:04,14.98339911,0.0002743,69.9997,70.4039,263.8363,96.2483,-0.00010348,-1.328e-05,0.0,0 STARLINK-5073,1 55427U 23014AN  24091.38615746 -.00001328  00000-0 -10348-3 0  9994,2 55427  69.9997  70.4039 0002743 263.8363  96.2483 14.98339911 65465,6950.162,96.106,573.934,570.121,0.0
55427.0,STARLINK-5073,PAYLOAD,2024-03-31 15:40:36,14.98334423,0.0002718,70.0004,69.7312,268.8249,91.2598,-0.0001986,-2.462e-05,0.0,0 STARLINK-5073,1 55427U 23014AN  24091.65320302 -.00002462  00000-0 -19860-3 0  9993,2 55427  70.0004  69.7312 0002718 268.8249  91.2598 14.98334423 64567,6950.179,96.107,573.933,570.155,0.0
55427.0,STARLINK-5073,PAYLOAD,2024-04-01 07:41:57,14.98322982,0.0002897,70.0,68.048,268.9787,91.104,-5.8623e-05,-7.92e-06,0.0,0 STARLINK-5073,1 55427U 23014AN  24092.32080732 -.00000792  00000-0 -58623-4 0  9993,2 55427  70.0000  68.0480 0002897 268.9787  91.1040 14.98322982 64666,6950.215,96.107,574.093,570.066,0.0
55427.0,STARLINK-5073,PAYLOAD,2024-04-01 15:42:37,14.9833089,0.0002938,70.0,67.2059,273.3855,86.6967,-2.583e-05,-4.01e-06,0.0,0 STARLINK-5073,1 55427U 23014AN  24092.65460190 -.00000401  00000-0 -25830-4 0  9990,2 55427  70.0000  67.2059 0002938 273.3855  86.6967 14.98330890 64711,6950.19,96.107,574.097,570.013,0.0
55427.0,STARLINK-5073,PAYLOAD,2024-04-02 04:31:41,14.98335818,0.0002991,69.9996,65.8593,268.3706,91.7111,9.1704e-05,1.002e-05,0.0,0 STARLINK-5073,1 55427U 23014AN  24093.18867475  .00001002  00000-0  91704-4 0  9995,2 55427  69.9996  65.8593 0002991 268.3706  91.7111 14.98335818 64798,6950.175,96.107,574.119,569.961,0.0
55427.0,STARLINK-5073,PAYLOAD,2024-04-02 07:43:57,14.98336289,0.0002985,69.9995,65.5227,268.4813,91.6004,9.8466e-05,1.082e-05,0.0,0 STARLINK-5073,1 55427U 23014AN  24093.32219396  .00001082  00000-0  98466-4 0  9994,2 55427  69.9995  65.5227 0002985 268.4813  91.6004 14.98336289 65751,6950.173,96.107,574.113,569.964,0.0
55427.0,STARLINK-5073,PAYLOAD,2024-04-02 15:44:38,14.98328431,0.0002889,70.0001,64.6803,271.2777,88.8051,0.00011692,1.302e-05,0.0,0 STARLINK-5073,1 55427U 23014AN  24093.65599815  .00001302  00000-0  11692-3 0  9997,2 55427  70.0001  64.6803 0002889 271.2777  88.8051 14.98328431 64867,6950.198,96.107,574.071,570.055,0.0
55427.0,STARLINK-5073,PAYLOAD,2024-04-03 02:57:35,14.98323142,0.0002999,69.9996,63.5014,269.2646,90.817,3.9947e-05,3.84e-06,0.0,0 STARLINK-5073,1 55427U 23014AN  24094.12332368  .00000384  00000-0  39947-4 0  9991,2 55427  69.9996  63.5014 0002999 269.2646  90.8170 14.98323142 64930,6950.214,96.107,574.163,569.995,0.0
